{
    "links": {
        "self": "http://www.neowsapp.com/rest/v1/neo/3696302?api_key=iIulBulltgU6a56xZRHN4H3l9WmuAYTsLGpBGhQ2"
    },
    "id": "3696302",
    "neo_reference_id": "3696302",
    "name": "(2014 WX4)",
    "designation": "2014 WX4",
    "nasa_jpl_url": "http://ssd.jpl.nasa.gov/sbdb.cgi?sstr=3696302",
    "absolute_magnitude_h": 26.4,
    "estimated_diameter": {
        "kilometers": {
            "estimated_diameter_min": 0.0139493823,
            "estimated_diameter_max": 0.0311917671
        },
        "meters": {
            "estimated_diameter_min": 13.9493822934,
            "estimated_diameter_max": 31.1917670523
        },
        "miles": {
            "estimated_diameter_min": 0.0086677416,
            "estimated_diameter_max": 0.0193816595
        },
        "feet": {
            "estimated_diameter_min": 45.7656914036,
            "estimated_diameter_max": 102.3351970157
        }
    },
    "is_potentially_hazardous_asteroid": false,
    "close_approach_data": [
        {
            "close_approach_date": "2009-08-30",
            "close_approach_date_full": "2009-Aug-30 04:18",
            "epoch_date_close_approach": 1251605880000,
            "relative_velocity": {
                "kilometers_per_second": "19.0367942519",
                "kilometers_per_hour": "68532.4593066676",
                "miles_per_hour": "42583.405061968"
            },
            "miss_distance": {
                "astronomical": "0.4065197181",
                "lunar": "158.1361703409",
                "kilometers": "60814483.940760447",
                "miles": "37788368.0508782886"
            },
            "orbiting_body": "Earth"
        },
        {
            "close_approach_date": "2014-11-13",
            "close_approach_date_full": "2014-Nov-13 09:26",
            "epoch_date_close_approach": 1415870760000,
            "relative_velocity": {
                "kilometers_per_second": "6.6342854718",
                "kilometers_per_hour": "23883.4276983019",
                "miles_per_hour": "14840.2331717588"
            },
            "miss_distance": {
                "astronomical": "0.0143241829",
                "lunar": "5.5721071481",
                "kilometers": "2142867.251330423",
                "miles": "1331515.9667609174"
            },
            "orbiting_body": "Earth"
        }
    ],
    "orbital_data": {
        "orbit_id": "4",
        "orbit_determination_date": "2017-04-06 08:37:30",
        "first_observation_date": "2014-11-16",
        "last_observation_date": "2014-11-21",
        "data_arc_in_days": 5,
        "observations_used": 23,
        "orbit_uncertainty": "8",
        "minimum_orbit_intersection": ".00753908",
        "jupiter_tisserand_invariant": "3.838",
        "epoch_osculation": "2456979.5",
        "eccentricity": ".4690458473840221",
        "semi_major_axis": "1.872388999074755",
        "inclination": ".9201829322944963",
        "ascending_node_longitude": "67.24834941224297",
        "orbital_period": "935.8204860910319",
        "perihelion_distance": ".9941527143712153",
        "perihelion_argument": "330.5733579566421",
        "aphelion_distance": "2.750625283778294",
        "perihelion_time": "2456964.434909594356",
        "mean_anomaly": "5.795377026512622",
        "mean_motion": ".3846891635208134",
        "equinox": "J2000",
        "orbit_class": {
            "orbit_class_type": "APO",
            "orbit_class_description": "Near-Earth asteroid orbits which cross the Earth’s orbit similar to that of 1862 Apollo",
            "orbit_class_range": "a (semi-major axis) > 1.0 AU; q (perihelion) < 1.017 AU"
        }
    },
    "is_sentry_object": false
}